STARLINK-5915
1 55987U 23042B   26092.83335647  .00826847  00000+0  29650-1 0  9990
2 55987  42.9991 282.8597 0001136 276.6568 188.8731 15.25738281  5768
STARLINK-5903
1 55996U 23042L   26092.83335647  .00820266  00000+0  29105-1 0  9994
2 55996  42.9994 282.6289 0001210 265.7848 296.4983 15.25696261  5834
STARLINK-5824
1 57067U 23088V   26092.83335647  .00806505  00000+0  28633-1 0  9990
2 57067  43.0000 334.1757 0001074 273.1674 182.2609 15.25723370  5835
